{
    "links": {
        "self": "http://www.neowsapp.com/rest/v1/neo/3666884?api_key=iIulBulltgU6a56xZRHN4H3l9WmuAYTsLGpBGhQ2"
    },
    "id": "3666884",
    "neo_reference_id": "3666884",
    "name": "(2014 FR52)",
    "designation": "2014 FR52",
    "nasa_jpl_url": "http://ssd.jpl.nasa.gov/sbdb.cgi?sstr=3666884",
    "absolute_magnitude_h": 23.9,
    "estimated_diameter": {
        "kilometers": {
            "estimated_diameter_min": 0.04411182,
            "estimated_diameter_max": 0.0986370281
        },
        "meters": {
            "estimated_diameter_min": 44.1118199997,
            "estimated_diameter_max": 98.6370281305
        },
        "miles": {
            "estimated_diameter_min": 0.0274098057,
            "estimated_diameter_max": 0.0612901888
        },
        "feet": {
            "estimated_diameter_min": 144.7238235278,
            "estimated_diameter_max": 323.6123073718
        }
    },
    "is_potentially_hazardous_asteroid": false,
    "close_approach_data": [
        {
            "close_approach_date": "1935-03-14",
            "close_approach_date_full": "1935-Mar-14 16:58",
            "epoch_date_close_approach": -1098255720000,
            "relative_velocity": {
                "kilometers_per_second": "19.9760636826",
                "kilometers_per_hour": "71913.8292573704",
                "miles_per_hour": "44684.4568516144"
            },
            "miss_distance": {
                "astronomical": "0.4475415828",
                "lunar": "174.0936757092",
                "kilometers": "66951267.523308636",
                "miles": "41601588.5476897368"
            },
            "orbiting_body": "Earth"
        },
        {
            "close_approach_date": "2011-06-23",
            "close_approach_date_full": "2011-Jun-23 20:51",
            "epoch_date_close_approach": 1308862260000,
            "relative_velocity": {
                "kilometers_per_second": "15.3113953234",
                "kilometers_per_hour": "55121.0231640881",
                "miles_per_hour": "34250.0601988191"
            },
            "miss_distance": {
                "astronomical": "0.3148190793",
                "lunar": "122.4646218477",
                "kilometers": "47096263.698641091",
                "miles": "29264261.2605094158"
            },
            "orbiting_body": "Earth"
        },
        {
            "close_approach_date": "2014-04-30",
            "close_approach_date_full": "2014-Apr-30 04:09",
            "epoch_date_close_approach": 1398830940000,
            "relative_velocity": {
                "kilometers_per_second": "6.7693188927",
                "kilometers_per_hour": "24369.5480138273",
                "miles_per_hour": "15142.2894311473"
            },
            "miss_distance": {
                "astronomical": "0.0426315378",
                "lunar": "16.5836682042",
                "kilometers": "6377587.249704486",
                "miles": "3962848.9572184668"
            },
            "orbiting_body": "Earth"
        },
        {
            "close_approach_date": "2017-03-20",
            "close_approach_date_full": "2017-Mar-20 13:56",
            "epoch_date_close_approach": 1490018160000,
            "relative_velocity": {
                "kilometers_per_second": "17.7326970227",
                "kilometers_per_hour": "63837.7092815652",
                "miles_per_hour": "39666.2699699814"
            },
            "miss_distance": {
                "astronomical": "0.3896176449",
                "lunar": "151.5612638661",
                "kilometers": "58285969.791456363",
                "miles": "36217222.2135012894"
            },
            "orbiting_body": "Earth"
        },
        {
            "close_approach_date": "2020-06-11",
            "close_approach_date_full": "2020-Jun-11 22:17",
            "epoch_date_close_approach": 1591913820000,
            "relative_velocity": {
                "kilometers_per_second": "12.7667672353",
                "kilometers_per_hour": "45960.3620469353",
                "miles_per_hour": "28557.9816285526"
            },
            "miss_distance": {
                "astronomical": "0.0749816167",
                "lunar": "29.1678488963",
                "kilometers": "11217090.147476429",
                "miles": "6969976.6155315602"
            },
            "orbiting_body": "Mars"
        }
    ],
    "orbital_data": {
        "orbit_id": "24",
        "orbit_determination_date": "2017-04-06 08:41:49",
        "first_observation_date": "2014-03-31",
        "last_observation_date": "2014-05-17",
        "data_arc_in_days": 47,
        "observations_used": 88,
        "orbit_uncertainty": "6",
        "minimum_orbit_intersection": ".0415622",
        "jupiter_tisserand_invariant": "3.628",
        "epoch_osculation": "2459000.5",
        "eccentricity": ".4907792588872609",
        "semi_major_axis": "2.050310288108477",
        "inclination": "4.838834793665245",
        "ascending_node_longitude": "29.05254387374796",
        "orbital_period": "1072.328412507642",
        "perihelion_distance": "1.044060524421672",
        "perihelion_argument": "196.7978859558409",
        "aphelion_distance": "3.056560051795282",
        "perihelion_time": "2458927.952791543140",
        "mean_anomaly": "24.35540711207568",
        "mean_motion": ".3357180466366076",
        "equinox": "J2000",
        "orbit_class": {
            "orbit_class_type": "AMO",
            "orbit_class_description": "Near-Earth asteroid orbits similar to that of 1221 Amor",
            "orbit_class_range": "1.017 AU < q (perihelion) < 1.3 AU"
        }
    },
    "is_sentry_object": false
}